{
  "type": "FeatureCollection",
  "features": [
    {
      "type": "Feature",
      "properties": {
        "norad_id": 36379,
        "name": "COSMOS 2251 DEB",
        "group": "cosmos-2251-debris",
        "lat": 73.94546051734476,
        "lon": 35.50383412910908,
        "alt_km": 734.585493756098,
        "timestamp": "2025-12-16T03:53:27.452516+00:00",
        "meta_object_name": "COSMOS 2251 DEB",
        "meta_object_id": "1993-036AZG",
        "meta_epoch": "2025-12-14T15:32:01.694112",
        "meta_mean_motion": 14.36082107,
        "meta_eccentricity": 0.00446626,
        "meta_inclination": 74.0126,
        "meta_ra_of_asc_node": 303.3155,
        "meta_arg_of_pericenter": 71.6898,
        "meta_mean_anomaly": 110.8401,
        "meta_ephemeris_type": 0,
        "meta_classification_type": "U",
        "meta_norad_cat_id": 36379,
        "meta_element_set_no": 999,
        "meta_rev_at_epoch": 64855,
        "meta_bstar": 0.00036106719,
        "meta_mean_motion_dot": 1.037e-05,
        "meta_mean_motion_ddot": 0,
        "tle_line1": "1 36379U 93036AZG 25348.64724183  .00001037  00000+0  36107-3 0  9996",
        "tle_line2": "2 36379  74.0126 303.3155 0044662  71.6898 110.8401 14.36082107648556"
      },
      "geometry": {
        "type": "Point",
        "coordinates": [
          35.50383412910908,
          73.94546051734476
        ]
      }
    },
    {
      "type": "Feature",
      "properties": {
        "norad_id": 36385,
        "name": "COSMOS 2251 DEB",
        "group": "cosmos-2251-debris",
        "lat": 45.283819970840334,
        "lon": -49.03302733845989,
        "alt_km": 746.4475154114798,
        "timestamp": "2025-12-16T03:53:27.452527+00:00",
        "meta_object_name": "COSMOS 2251 DEB",
        "meta_object_id": "1993-036AZN",
        "meta_epoch": "2025-12-14T12:09:34.420896",
        "meta_mean_motion": 14.72609971,
        "meta_eccentricity": 0.0141345,
        "meta_inclination": 73.9693,
        "meta_ra_of_asc_node": 151.0837,
        "meta_arg_of_pericenter": 325.0853,
        "meta_mean_anomaly": 34.1107,
        "meta_ephemeris_type": 0,
        "meta_classification_type": "U",
        "meta_norad_cat_id": 36385,
        "meta_element_set_no": 999,
        "meta_rev_at_epoch": 85128,
        "meta_bstar": 0.001300457,
        "meta_mean_motion_dot": 9.676e-05,
        "meta_mean_motion_ddot": 0,
        "tle_line1": "1 36385U 93036AZN 25348.50664839  .00009676  00000+0  13005-2 0  9997",
        "tle_line2": "2 36385  73.9693 151.0837 0141345 325.0853  34.1107 14.72609971851289"
      },
      "geometry": {
        "type": "Point",
        "coordinates": [
          -49.03302733845989,
          45.283819970840334
        ]
      }
    },
    {
      "type": "Feature",
      "properties": {
        "norad_id": 36420,
        "name": "COSMOS 2251 DEB",
        "group": "cosmos-2251-debris",
        "lat": -18.79261137529881,
        "lon": -96.39608305520716,
        "alt_km": 761.0893129126307,
        "timestamp": "2025-12-16T03:53:27.452538+00:00",
        "meta_object_name": "COSMOS 2251 DEB",
        "meta_object_id": "1993-036AZT",
        "meta_epoch": "2025-12-09T05:12:09.080064",
        "meta_mean_motion": 14.36895704,
        "meta_eccentricity": 0.001793,
        "meta_inclination": 74.0374,
        "meta_ra_of_asc_node": 281.9559,
        "meta_arg_of_pericenter": 10.5601,
        "meta_mean_anomaly": 57.255,
        "meta_ephemeris_type": 0,
        "meta_classification_type": "U",
        "meta_norad_cat_id": 36420,
        "meta_element_set_no": 999,
        "meta_rev_at_epoch": 84986,
        "meta_bstar": 0.00029505,
        "meta_mean_motion_dot": 8.48e-06,
        "meta_mean_motion_ddot": 0,
        "tle_line1": "1 36420U 93036AZT 25343.21677176  .00000848  00000+0  29505-3 0  9993",
        "tle_line2": "2 36420  74.0374 281.9559 0017930  10.5601  57.2550 14.36895704849860"
      },
      "geometry": {
        "type": "Point",
        "coordinates": [
          -96.39608305520716,
          -18.79261137529881
        ]
      }
    },
    {
      "type": "Feature",
      "properties": {
        "norad_id": 36430,
        "name": "COSMOS 2251 DEB",
        "group": "cosmos-2251-debris",
        "lat": -63.939575105201186,
        "lon": -41.769998816291974,
        "alt_km": 736.0297803043068,
        "timestamp": "2025-12-16T03:53:27.452548+00:00",
        "meta_object_name": "COSMOS 2251 DEB",
        "meta_object_id": "1993-036BAD",
        "meta_epoch": "2025-12-15T01:29:56.245920",
        "meta_mean_motion": 14.27797993,
        "meta_eccentricity": 0.00974903,
        "meta_inclination": 74.0045,
        "meta_ra_of_asc_node": 104.313,
        "meta_arg_of_pericenter": 253.9195,
        "meta_mean_anomaly": 105.1202,
        "meta_ephemeris_type": 0,
        "meta_classification_type": "U",
        "meta_norad_cat_id": 36430,
        "meta_element_set_no": 999,
        "meta_rev_at_epoch": 64590,
        "meta_bstar": 0.00050435869,
        "meta_mean_motion_dot": 1.285e-05,
        "meta_mean_motion_ddot": 0,
        "tle_line1": "1 36430U 93036BAD 25349.06245655  .00001285  00000+0  50436-3 0  9999",
        "tle_line2": "2 36430  74.0045 104.3130 0097490 253.9195 105.1202 14.27797993645906"
      },
      "geometry": {
        "type": "Point",
        "coordinates": [
          -41.769998816291974,
          -63.939575105201186
        ]
      }
    },
    {
      "type": "Feature",
      "properties": {
        "norad_id": 36437,
        "name": "COSMOS 2251 DEB",
        "group": "cosmos-2251-debris",
        "lat": 59.132793949179984,
        "lon": 56.12576302186118,
        "alt_km": 668.3441348097922,
        "timestamp": "2025-12-16T03:53:27.452559+00:00",
        "meta_object_name": "COSMOS 2251 DEB",
        "meta_object_id": "1993-036BAL",
        "meta_epoch": "2025-12-14T09:09:30.905280",
        "meta_mean_motion": 14.70733296,
        "meta_eccentricity": 0.00232569,
        "meta_inclination": 73.9432,
        "meta_ra_of_asc_node": 30.7933,
        "meta_arg_of_pericenter": 262.2827,
        "meta_mean_anomaly": 97.5703,
        "meta_ephemeris_type": 0,
        "meta_classification_type": "U",
        "meta_norad_cat_id": 36437,
        "meta_element_set_no": 999,
        "meta_rev_at_epoch": 66075,
        "meta_bstar": 0.0015477574,
        "meta_mean_motion_dot": 9.458e-05,
        "meta_mean_motion_ddot": 0,
        "tle_line1": "1 36437U 93036BAL 25348.38160770  .00009458  00000+0  15478-2 0  9990",
        "tle_line2": "2 36437  73.9432  30.7933 0023256 262.2827  97.5703 14.70733296660752"
      },
      "geometry": {
        "type": "Point",
        "coordinates": [
          56.12576302186118,
          59.132793949179984
        ]
      }
    },
    {
      "type": "Feature",
      "properties": {
        "norad_id": 36439,
        "name": "COSMOS 2251 DEB",
        "group": "cosmos-2251-debris",
        "lat": -73.67617565964267,
        "lon": -47.76609567987062,
        "alt_km": 1070.1232278167954,
        "timestamp": "2025-12-16T03:53:27.452569+00:00",
        "meta_object_name": "COSMOS 2251 DEB",
        "meta_object_id": "1993-036BAN",
        "meta_epoch": "2025-12-14T09:32:51.470880",
        "meta_mean_motion": 13.47799978,
        "meta_eccentricity": 0.04278843,
        "meta_inclination": 73.9685,
        "meta_ra_of_asc_node": 34.0698,
        "meta_arg_of_pericenter": 5.5967,
        "meta_mean_anomaly": 354.9698,
        "meta_ephemeris_type": 0,
        "meta_classification_type": "U",
        "meta_norad_cat_id": 36439,
        "meta_element_set_no": 999,
        "meta_rev_at_epoch": 58635,
        "meta_bstar": 0.0013173309,
        "meta_mean_motion_dot": 1.398e-05,
        "meta_mean_motion_ddot": 0,
        "tle_line1": "1 36439U 93036BAN 25348.39781795  .00001398  00000+0  13173-2 0  9994",
        "tle_line2": "2 36439  73.9685  34.0698 0427884   5.5967 354.9698 13.47799978586355"
      },
      "geometry": {
        "type": "Point",
        "coordinates": [
          -47.76609567987062,
          -73.67617565964267
        ]
      }
    },
    {
      "type": "Feature",
      "properties": {
        "norad_id": 36441,
        "name": "COSMOS 2251 DEB",
        "group": "cosmos-2251-debris",
        "lat": -62.64562680596299,
        "lon": -163.26079595765128,
        "alt_km": 625.8060860544529,
        "timestamp": "2025-12-16T03:53:27.452580+00:00",
        "meta_object_name": "COSMOS 2251 DEB",
        "meta_object_id": "1993-036BAQ",
        "meta_epoch": "2025-12-15T06:05:15.368640",
        "meta_mean_motion": 15.06805702,
        "meta_eccentricity": 0.01084779,
        "meta_inclination": 73.8354,
        "meta_ra_of_asc_node": 344.5255,
        "meta_arg_of_pericenter": 83.0253,
        "meta_mean_anomaly": 278.326,
        "meta_ephemeris_type": 0,
        "meta_classification_type": "U",
        "meta_norad_cat_id": 36441,
        "meta_element_set_no": 999,
        "meta_rev_at_epoch": 87003,
        "meta_bstar": 0.00030687329,
        "meta_mean_motion_dot": 5.184e-05,
        "meta_mean_motion_ddot": 0,
        "tle_line1": "1 36441U 93036BAQ 25349.25365010  .00005184  00000+0  30687-3 0  9998",
        "tle_line2": "2 36441  73.8354 344.5255 0108477  83.0253 278.3260 15.06805702870036"
      },
      "geometry": {
        "type": "Point",
        "coordinates": [
          -163.26079595765128,
          -62.64562680596299
        ]
      }
    }
  ]
}